0 SL-12 R/B(2)
1 25074U 97076D   13280.33936355 -.00000077  00000-0  00000+0 0  7653
2 25074 012.9633 003.1077 4356601 103.9830 342.4558 01.71942825 99526
0 SL-12 R/B(2)
1 25074U 97076D   13283.18915483 -.00000020  00000-0  10000-3 0  7673
2 25074 012.9703 002.9228 4356056 104.3567 306.4363 01.71940872 99563
0 SL-12 R/B(2)
1 25074U 97076D   13283.72315477 -.00000085  00000-0  00000+0 0  7665
2 25074 012.9635 002.8843 4356497 104.4373 276.9629 01.71943318 99579
0 SL-12 R/B(2)
1 25074U 97076D   13286.16071493 -.00000086  00000-0  00000+0 0  7675
2 25074 012.9637 002.7224 4356356 104.7636 345.7732 01.71943670 99629
0 SL-12 R/B(2)
1 25074U 97076D   13288.42548436 -.00000095  00000-0  00000+0 0  7683
2 25074 012.9639 002.5716 4356302 105.0655 307.6371 01.71943832 99661
0 SL-12 R/B(2)
1 25074U 97076D   13291.34117766 -.00000116  00000-0  00000+0 0  7691
2 25074 012.9641 002.3774 4356293 105.4537 312.4205 01.71943851 99715
0 SL-12 R/B(2)
1 25074U 97076D   13294.30363390 -.00000120  00000-0  00000+0 0  7703
2 25074 012.9643 002.1803 4356338 105.8478 346.1540 01.71943684 99761
